STARLINK-33887          
1 63680U 25085S   26014.99781207  .00008154  00000+0  30540-3 0  9991
2 63680  43.0031 333.6901 0001404 253.6563 106.4135 15.27590543 40724
STARLINK-33886          
1 63681U 25085T   26014.92857428  .00015442  00000+0  56919-3 0  9990
2 63681  42.9995 334.0309 0000544  44.1206 315.9689 15.27597457 40654
STARLINK-33840          
1 63682U 25085U   26014.97870072  .00020751  00000+0  76103-3 0  9992
2 63682  43.0021 334.4099 0001279 275.5571  84.5134 15.27598857 40657
STARLINK-33851          
1 63683U 25085V   26014.29140980  .00014626  00000+0  53971-3 0  9998
2 63683  43.0043 337.8485 0001238 274.7031  85.3679 15.27596041 40550
STARLINK-33853          
1 63684U 25085W   26014.22216568  .00005498  00000+0  20932-3 0  9996
2 63684  43.0033 338.1887 0001902 258.9261 101.1377 15.27557244 40540
STARLINK-33847          
1 63685U 25085X   26014.57608960  .00005234  00000+0  19954-3 0  9996
2 63685  43.0000 336.5479 0000891 290.2316  69.8440 15.27587656 40596
STARLINK-33880          
1 63686U 25085Y   26014.91586860  .00014328  00000+0  52896-3 0  9995
2 63686  43.0025 334.7963 0000685 253.2069 106.8708 15.27594481 40758
STARLINK-33894          
1 63697U 25087A   26014.68216095  .00003739  00000+0  13829-3 0  9990
2 63697  53.1586 110.2213 0001012  91.3969 268.7147 15.30199510 40937
STARLINK-33922          
1 63698U 25087B   26014.67794076  .00004817  00000+0  17467-3 0  9990
2 63698  53.1581 110.1930 0001381  65.5759 294.5386 15.30197140 40925
STARLINK-33919          
1 63699U 25087C   26014.66857450  .00021283  00000+0  72904-3 0  9999
2 63699  53.1593 110.8429 0001197 100.2531 259.8605 15.30182259 40922
STARLINK-33908          
1 63700U 25087D   26014.69482609  .00009248  00000+0  32395-3 0  9992
2 63700  53.1590 110.2984 0001544  65.8480 294.2682 15.30203039 40936
STARLINK-33950          
1 63701U 25087E   26014.64850667  .00012997  00000+0  45012-3 0  9996
2 63701  53.1592 110.7199 0001223  37.9851 322.1236 15.30204942 40927
STARLINK-33939          
1 63702U 25087F   26014.64533931  .00006227  00000+0  22221-3 0  9995
2 63702  53.1586 110.7002 0001259  82.0256 278.0888 15.30199151 40920
STARLINK-33868          
1 63703U 25087G   26014.56842173  .00023145  00000+0  79017-3 0  9991
2 63703  53.1581 110.9265 0001232 108.0531 252.0604 15.30239955 40919
STARLINK-33937          
1 63704U 25087H   26014.67477475  .00010649  00000+0  37109-3 0  9994
2 63704  53.1586 110.1709 0001251  70.5832 289.5304 15.30206978 40931
STARLINK-33848          
1 63705U 25087J   26014.55575015  .00021494  00000+0  73611-3 0  9999
2 63705  53.1586 110.8499 0001003  93.3198 266.7918 15.30182545 40906
