[{"OBJECT_NAME":"STARLINK-33887","OBJECT_ID":"2025-085S","EPOCH":"2026-01-14T23:56:50.962848","MEAN_MOTION":15.27590543,"ECCENTRICITY":0.0001404,"INCLINATION":43.0031,"RA_OF_ASC_NODE":333.6901,"ARG_OF_PERICENTER":253.6563,"MEAN_ANOMALY":106.4135,"EPHEMERIS_TYPE":0,"CLASSIFICATION_TYPE":"U","NORAD_CAT_ID":63680,"ELEMENT_SET_NO":999,"REV_AT_EPOCH":4072,"BSTAR":0.0003054,"MEAN_MOTION_DOT":8.154e-5,"MEAN_MOTION_DDOT":0},{"OBJECT_NAME":"STARLINK-33886","OBJECT_ID":"2025-085T","EPOCH":"2026-01-14T22:17:08.817792","MEAN_MOTION":15.27597457,"ECCENTRICITY":5.44e-5,"INCLINATION":42.9995,"RA_OF_ASC_NODE":334.0309,"ARG_OF_PERICENTER":44.1206,"MEAN_ANOMALY":315.9689,"EPHEMERIS_TYPE":0,"CLASSIFICATION_TYPE":"U","NORAD_CAT_ID":63681,"ELEMENT_SET_NO":999,"REV_AT_EPOCH":4065,"BSTAR":0.00056919,"MEAN_MOTION_DOT":0.00015442,"MEAN_MOTION_DDOT":0},{"OBJECT_NAME":"STARLINK-33840","OBJECT_ID":"2025-085U","EPOCH":"2026-01-14T23:29:19.742208","MEAN_MOTION":15.27598857,"ECCENTRICITY":0.0001279,"INCLINATION":43.0021,"RA_OF_ASC_NODE":334.4099,"ARG_OF_PERICENTER":275.5571,"MEAN_ANOMALY":84.5134,"EPHEMERIS_TYPE":0,"CLASSIFICATION_TYPE":"U","NORAD_CAT_ID":63682,"ELEMENT_SET_NO":999,"REV_AT_EPOCH":4065,"BSTAR":0.00076103,"MEAN_MOTION_DOT":0.00020751,"MEAN_MOTION_DDOT":0},{"OBJECT_NAME":"STARLINK-33851","OBJECT_ID":"2025-085V","EPOCH":"2026-01-14T06:59:37.806720","MEAN_MOTION":15.27596041,"ECCENTRICITY":0.0001238,"INCLINATION":43.0043,"RA_OF_ASC_NODE":337.8485,"ARG_OF_PERICENTER":274.7031,"MEAN_ANOMALY":85.3679,"EPHEMERIS_TYPE":0,"CLASSIFICATION_TYPE":"U","NORAD_CAT_ID":63683,"ELEMENT_SET_NO":999,"REV_AT_EPOCH":4055,"BSTAR":0.00053970545,"MEAN_MOTION_DOT":0.00014626,"MEAN_MOTION_DDOT":0},{"OBJECT_NAME":"STARLINK-33853","OBJECT_ID":"2025-085W","EPOCH":"2026-01-14T05:19:55.114752","MEAN_MOTION":15.27557244,"ECCENTRICITY":0.00019029,"INCLINATION":43.0033,"RA_OF_ASC_NODE":338.1887,"ARG_OF_PERICENTER":258.9261,"MEAN_ANOMALY":101.1377,"EPHEMERIS_TYPE":0,"CLASSIFICATION_TYPE":"U","NORAD_CAT_ID":63684,"ELEMENT_SET_NO":999,"REV_AT_EPOCH":4054,"BSTAR":0.0002093242,"MEAN_MOTION_DOT":5.498e-5,"MEAN_MOTION_DDOT":0},{"OBJECT_NAME":"STARLINK-33847","OBJECT_ID":"2025-085X","EPOCH":"2026-01-14T13:49:34.141440","MEAN_MOTION":15.27587656,"ECCENTRICITY":8.91e-5,"INCLINATION":43,"RA_OF_ASC_NODE":336.5479,"ARG_OF_PERICENTER":290.2316,"MEAN_ANOMALY":69.844,"EPHEMERIS_TYPE":0,"CLASSIFICATION_TYPE":"U","NORAD_CAT_ID":63685,"ELEMENT_SET_NO":999,"REV_AT_EPOCH":4059,"BSTAR":0.00019954,"MEAN_MOTION_DOT":5.234e-5,"MEAN_MOTION_DDOT":0},{"OBJECT_NAME":"STARLINK-33880","OBJECT_ID":"2025-085Y","EPOCH":"2026-01-14T21:58:51.047040","MEAN_MOTION":15.27594481,"ECCENTRICITY":6.85e-5,"INCLINATION":43.0025,"RA_OF_ASC_NODE":334.7963,"ARG_OF_PERICENTER":253.2069,"MEAN_ANOMALY":106.8708,"EPHEMERIS_TYPE":0,"CLASSIFICATION_TYPE":"U","NORAD_CAT_ID":63686,"ELEMENT_SET_NO":999,"REV_AT_EPOCH":4075,"BSTAR":0.00052896,"MEAN_MOTION_DOT":0.00014328,"MEAN_MOTION_DDOT":0},{"OBJECT_NAME":"STARLINK-33894","OBJECT_ID":"2025-087A","EPOCH":"2026-01-14T16:22:18.706080","MEAN_MOTION":15.3019951,"ECCENTRICITY":0.0001012,"INCLINATION":53.1586,"RA_OF_ASC_NODE":110.2213,"ARG_OF_PERICENTER":91.3969,"MEAN_ANOMALY":268.7147,"EPHEMERIS_TYPE":0,"CLASSIFICATION_TYPE":"U","NORAD_CAT_ID":63697,"ELEMENT_SET_NO":999,"REV_AT_EPOCH":4093,"BSTAR":0.00013829,"MEAN_MOTION_DOT":3.739e-5,"MEAN_MOTION_DDOT":0},{"OBJECT_NAME":"STARLINK-33922","OBJECT_ID":"2025-087B","EPOCH":"2026-01-14T16:16:14.081664","MEAN_MOTION":15.3019714,"ECCENTRICITY":0.0001381,"INCLINATION":53.1581,"RA_OF_ASC_NODE":110.193,"ARG_OF_PERICENTER":65.5759,"MEAN_ANOMALY":294.5386,"EPHEMERIS_TYPE":0,"CLASSIFICATION_TYPE":"U","NORAD_CAT_ID":63698,"ELEMENT_SET_NO":999,"REV_AT_EPOCH":4092,"BSTAR":0.00017467,"MEAN_MOTION_DOT":4.817e-5,"MEAN_MOTION_DDOT":0},{"OBJECT_NAME":"STARLINK-33919","OBJECT_ID":"2025-087C","EPOCH":"2026-01-14T16:02:44.836800","MEAN_MOTION":15.30182259,"ECCENTRICITY":0.0001197,"INCLINATION":53.1593,"RA_OF_ASC_NODE":110.8429,"ARG_OF_PERICENTER":100.2531,"MEAN_ANOMALY":259.8605,"EPHEMERIS_TYPE":0,"CLASSIFICATION_TYPE":"U","NORAD_CAT_ID":63699,"ELEMENT_SET_NO":999,"REV_AT_EPOCH":4092,"BSTAR":0.00072904,"MEAN_MOTION_DOT":0.00021283,"MEAN_MOTION_DDOT":0},{"OBJECT_NAME":"STARLINK-33908","OBJECT_ID":"2025-087D","EPOCH":"2026-01-14T16:40:32.974176","MEAN_MOTION":15.30203039,"ECCENTRICITY":0.0001544,"INCLINATION":53.159,"RA_OF_ASC_NODE":110.2984,"ARG_OF_PERICENTER":65.848,"MEAN_ANOMALY":294.2682,"EPHEMERIS_TYPE":0,"CLASSIFICATION_TYPE":"U","NORAD_CAT_ID":63700,"ELEMENT_SET_NO":999,"REV_AT_EPOCH":4093,"BSTAR":0.00032395,"MEAN_MOTION_DOT":9.248e-5,"MEAN_MOTION_DDOT":0},{"OBJECT_NAME":"STARLINK-33950","OBJECT_ID":"2025-087E","EPOCH":"2026-01-14T15:33:50.976288","MEAN_MOTION":15.30204942,"ECCENTRICITY":0.0001223,"INCLINATION":53.1592,"RA_OF_ASC_NODE":110.7199,"ARG_OF_PERICENTER":37.9851,"MEAN_ANOMALY":322.1236,"EPHEMERIS_TYPE":0,"CLASSIFICATION_TYPE":"U","NORAD_CAT_ID":63701,"ELEMENT_SET_NO":999,"REV_AT_EPOCH":4092,"BSTAR":0.00045012,"MEAN_MOTION_DOT":0.00012997,"MEAN_MOTION_DDOT":0},{"OBJECT_NAME":"STARLINK-33939","OBJECT_ID":"2025-087F","EPOCH":"2026-01-14T15:29:17.316384","MEAN_MOTION":15.30199151,"ECCENTRICITY":0.0001259,"INCLINATION":53.1586,"RA_OF_ASC_NODE":110.7002,"ARG_OF_PERICENTER":82.0256,"MEAN_ANOMALY":278.0888,"EPHEMERIS_TYPE":0,"CLASSIFICATION_TYPE":"U","NORAD_CAT_ID":63702,"ELEMENT_SET_NO":999,"REV_AT_EPOCH":4092,"BSTAR":0.00022221,"MEAN_MOTION_DOT":6.227e-5,"MEAN_MOTION_DDOT":0},{"OBJECT_NAME":"STARLINK-33868","OBJECT_ID":"2025-087G","EPOCH":"2026-01-14T13:38:31.637472","MEAN_MOTION":15.30239955,"ECCENTRICITY":0.0001232,"INCLINATION":53.1581,"RA_OF_ASC_NODE":110.9265,"ARG_OF_PERICENTER":108.0531,"MEAN_ANOMALY":252.0604,"EPHEMERIS_TYPE":0,"CLASSIFICATION_TYPE":"U","NORAD_CAT_ID":63703,"ELEMENT_SET_NO":999,"REV_AT_EPOCH":4091,"BSTAR":0.00079017,"MEAN_MOTION_DOT":0.00023145,"MEAN_MOTION_DDOT":0},{"OBJECT_NAME":"STARLINK-33937","OBJECT_ID":"2025-087H","EPOCH":"2026-01-14T16:11:40.538400","MEAN_MOTION":15.30206978,"ECCENTRICITY":0.0001251,"INCLINATION":53.1586,"RA_OF_ASC_NODE":110.1709,"ARG_OF_PERICENTER":70.5832,"MEAN_ANOMALY":289.5304,"EPHEMERIS_TYPE":0,"CLASSIFICATION_TYPE":"U","NORAD_CAT_ID":63704,"ELEMENT_SET_NO":999,"REV_AT_EPOCH":4093,"BSTAR":0.00037109,"MEAN_MOTION_DOT":0.00010649,"MEAN_MOTION_DDOT":0},{"OBJECT_NAME":"STARLINK-33848","OBJECT_ID":"2025-087J","EPOCH":"2026-01-14T13:20:16.812960","MEAN_MOTION":15.30182545,"ECCENTRICITY":0.0001003,"INCLINATION":53.1586,"RA_OF_ASC_NODE":110.8499,"ARG_OF_PERICENTER":93.3198,"MEAN_ANOMALY":266.7918,"EPHEMERIS_TYPE":0,"CLASSIFICATION_TYPE":"U","NORAD_CAT_ID":63705,"ELEMENT_SET_NO":999,"REV_AT_EPOCH":4090,"BSTAR":0.00073611,"MEAN_MOTION_DOT":0.00021494,"MEAN_MOTION_DDOT":0}]
